QZS-4 (MICHIBIKI-4)     
1 42965U 17062A   19251.60180382 -.00000342  00000-0  00000-0 0  9998
2 42965  40.7755  15.3410 0745806 269.3958  58.7059  1.00282813  7019
SES-11 (ECHOSTAR 105)   
1 42967U 17063A   19251.93104868 -.00000112  00000-0  00000-0 0  9997
2 42967   0.0153 214.4345 0002736 321.1945  42.2908  1.00272611  7018
KOREASAT 5A             
1 42984U 17067A   19252.46347785 -.00000380  00000-0  00000+0 0  9992
2 42984   0.0120 142.0553 0002136  16.3573 109.8081  1.00272730  6835
ALCOMSAT 1              
1 43039U 17078A   19252.43591130 -.00000208  00000-0  00000+0 0  9997
2 43039   0.0282 239.3210 0003076 280.8913 320.1189  1.00272396  6493
SBIRS GEO-4 (USA 282)   
1 43162U 18009A   19251.84077157 -.00000311  00000-0  00000+0 0  9996
2 43162   5.4897 317.9336 0002643 201.3927 269.9358  1.00271807  6039
AL YAH 3                
1 43174U 18012A   19252.16021372 -.00000178  00000-0  00000+0 0  9998
2 43174   0.0269 255.7001 0002150 266.1977 223.5901  1.00270139  6050
SES-14                  
1 43175U 18012B   19252.47132865 -.00000301  00000-0  00000+0 0  9991
2 43175   0.0208 148.9899 0001271  16.7106 304.7140  1.00269419  6278
GOES 17                 
1 43226U 18022A   19252.48528682  .00000075  00000-0  00000+0 0  9993
2 43226   0.0320  28.8396 0000496 103.0344 253.8650  1.00273250  5648
HISPASAT 30W-6          
1 43228U 18023A   19252.43486448 -.00000238  00000-0  00000+0 0  9996
2 43228   0.0401  51.5044 0004133  80.0504 343.1687  1.00271400  5702
SUPERBIRD 8             
1 43271U 18033A   19251.89871257 -.00000115  00000-0  00000-0 0  9995
2 43271   0.0382 256.0367 0001089 273.6745 303.4703  1.00272480  5260
HYLAS 4                 
1 43272U 18033B   19252.43416657 -.00000256  00000-0  00000+0 0  9991
2 43272   0.0600 125.1153 0004629  42.8724 303.0241  1.00271042  5298
IRNSS-1I                
1 43286U 18035A   19250.72132869  .00000070  00000-0  00000+0 0  9991
2 43286  28.6146 114.2452 0019769 170.7307  16.4134  1.00274717  5258
COSMOS 2526             
1 43432U 18037A   19252.46644387 -.00000367  00000-0  00000+0 0  9992
2 43432   0.0245 116.9436 0001177 347.7691 179.4944  1.00270340  5170
APSTAR 6C               
1 43450U 18041A   19252.44024326 -.00000340  00000-0  00000+0 0  9991
2 43450   0.0375 281.3126 0001594 159.1800 200.2039  1.00273186  5042
BANGABANDHUSAT-1        
1 43463U 18044A   19251.86924420 -.00000385  00000-0  00000-0 0  9997
2 43463   0.0104 134.4628 0002166  31.0104 254.1853  1.00272174  4915
SES-12                  
1 43488U 18049A   19251.91267951 -.00000292  00000-0  00000-0 0  9991
2 43488   0.0271  79.1407 0001796 154.3773 177.7206  1.00272514  4635
FENGYUN 2H              
1 43491U 18050A   19252.09769767 -.00000149  00000-0  00000+0 0  9999
2 43491   1.3238 280.3935 0003253 244.2532 297.4575  1.00270092  4717
BEIDOU IGSO-7           
1 43539U 18057A   19252.02473179 -.00000168  00000-0  00000+0 0  9992
2 43539  55.0401 184.8396 0023007 200.5017  81.9718  1.00252324  4352
TELSTAR 19V             
1 43562U 18059A   19252.47394983 -.00000302  00000-0  00000+0 0  9994
2 43562   0.0102 159.0368 0002164   7.5034 289.2937  1.00271612  4373
TELKOM 4 (MERAH PUTIH)  
1 43587U 18064A   19251.94864647 -.00000367  00000-0  00000-0 0  9999
2 43587   0.0247 140.3822 0001693  32.4547 264.3803  1.00269812  4061
TELSTAR 18V (APSTAR 5C) 
1 43611U 18069A   19251.96570976 -.00000317  00000-0  00000+0 0  9997
2 43611   0.0220 136.3091 0001222  52.2216 284.8508  1.00269118  3814
AZERSPACE 2 (IS-38)     
1 43632U 18074A   19252.18382759  .00000114  00000-0  00000+0 0  9995
2 43632   0.0168 150.9751 0001615   9.3605 298.9080  1.00271524  3707
HORIZONS 3E             
1 43633U 18074B   19251.90028281 -.00000053  00000-0  00000-0 0  9996
2 43633   0.0208 325.9389 0000138 312.4280 202.3998  1.00272154  3561
AEHF-4 (USA 288)        
1 43651U 18079A   19251.62633912  .00000041  00000-0  00000-0 0  9999
2 43651   4.4363 311.4276 0003909 235.4465 261.3312  1.00003953  3490
BEIDOU-3 G1             
1 43683U 18085A   19252.24859576 -.00000268  00000-0  00000+0 0  9997
2 43683   2.3975 266.5712 0000982 255.4712  59.9528  1.00275625  3263
GSAT-29                 
1 43698U 18089A   19251.87751424  .00000062  00000-0  00000-0 0  9990
2 43698   0.0602 267.2915 0002043 237.6242 213.6632  1.00274235  2983
ES'HAIL 2               
1 43700U 18090A   19252.23064521  .00000122  00000-0  00000+0 0  9998
2 43700   0.0190 117.1133 0001692  60.6555 279.0508  1.00274563  3123
GEO-KOMPSAT-2A          
1 43823U 18100A   19251.87961769 -.00000367  00000-0  00000-0 0  9998
2 43823   0.0301  11.7360 0001884 108.9354 311.8546  1.00272593  2813
GSAT-11                 
1 43824U 18100B   19251.88135262 -.00000099  00000-0  00000-0 0  9993
2 43824   0.0804 266.4947 0007081 212.6230 259.7544  1.00271846  2754
GSAT-7A                 
1 43864U 18105A   19252.17792306  .00000004  00000-0  00000+0 0  9997
2 43864   0.0151 142.1344 0001933   7.9297 324.6734  1.00270889  2672
COSMOS 2533             
1 43867U 18107A   19252.17271571 -.00000061  00000-0  00000+0 0  9992
2 43867   0.0178 128.9057 0000137  27.7839 323.3423  1.00275335  2632
TJS-3                   
1 43874U 18110A   19251.62925226 -.00000020  00000-0  00000+0 0  9991
2 43874   0.0720 285.1305 0005418 279.6377 182.1674  1.00272732  2689
TJS-3 AKM               
1 43917U 18110C   19251.95974903  .00000034  00000-0  00000-0 0  9996
2 43917   0.2885  99.3629 0004035  89.4723 203.3828  1.00271360  2550
CHINASAT 2D (ZX 2D)     
1 43920U 19001A   19252.59203676 -.00000359  00000-0  00000+0 0  9993
2 43920   0.0182 105.1511 0000744  57.0212 169.3250  1.00271757  2566
GSAT-31                 
1 44035U 19007B   19252.09848280 -.00000187  00000-0  00000+0 0  9997
2 44035   0.1013 267.1673 0003735 307.5966 251.5113  1.00272075  2160
NUSANTARA SATU          
1 44048U 19009A   19251.89565932 -.00000257  00000-0  00000-0 0  9999
2 44048   0.0129 121.7279 0002126  38.9774 295.3793  1.00271019  1956
WGS 10 (USA 291)        
1 44071U 19014A   19251.90118860 -.00000004  00000-0  00000-0 0  9997
2 44071   0.0156 124.3408 0000811  22.3774  43.4708  1.00272371  1849
ARABSAT-6A              
1 44186U 19021A   19252.13243778  .00000131  00000-0  00000+0 0  9994
2 44186   0.0510 318.6663 0003418 274.2300 193.2152  1.00259197  1422
BEIDOU-3 IGSO-1         
1 44204U 19023A   19252.24673608 -.00000179  00000-0  10000-3 0  9996
2 44204  55.0930  64.0422 0018330 176.0775 310.3878  1.00262258  1562
INTELSAT 39 (IS-39)     
1 44476U 19049B   19251.94939662  .00000060  00000-0  00000-0 0  9990
2 44476   0.0676  99.9624 0001828  18.6485 266.1782  1.00274951   388
AMOS-17                 
1 44479U 19050A   19252.24470520  .00000070  00000-0  00000+0 0  9992
2 44479   0.1273 281.2196 0001561 255.1559 273.5493  1.00274787   411
